{
  "type": "FeatureCollection",
  "features": [
    {
      "type": "Feature",
      "properties": {
        "norad_id": 35721,
        "name": "COSMOS 2251 DEB",
        "group": "cosmos-2251-debris",
        "lat": 3.630602173980205,
        "lon": -165.55842844810996,
        "alt_km": 682.6976976385113,
        "timestamp": "2025-12-04T05:42:43.768656+00:00",
        "meta_object_name": "COSMOS 2251 DEB",
        "meta_object_id": "1993-036AQS",
        "meta_epoch": "2025-11-29T21:54:16.243200",
        "meta_mean_motion": 14.34192363,
        "meta_eccentricity": 0.01464404,
        "meta_inclination": 73.9503,
        "meta_ra_of_asc_node": 201.3539,
        "meta_arg_of_pericenter": 350.3358,
        "meta_mean_anomaly": 9.498,
        "meta_ephemeris_type": 0,
        "meta_classification_type": "U",
        "meta_norad_cat_id": 35721,
        "meta_element_set_no": 999,
        "meta_rev_at_epoch": 57605,
        "meta_bstar": 0.0014885779,
        "meta_mean_motion_dot": 4.68e-05,
        "meta_mean_motion_ddot": 0,
        "tle_line1": "1 35721U 93036AQS 25333.91268800  .00004680  00000+0  14886-2 0  9995",
        "tle_line2": "2 35721  73.9503 201.3539 0146440 350.3358   9.4980 14.34192363576055"
      },
      "geometry": {
        "type": "Point",
        "coordinates": [
          -165.55842844810996,
          3.630602173980205
        ]
      }
    },
    {
      "type": "Feature",
      "properties": {
        "norad_id": 35724,
        "name": "COSMOS 2251 DEB",
        "group": "cosmos-2251-debris",
        "lat": -60.34588483079724,
        "lon": -71.3306770826679,
        "alt_km": 747.7433353607075,
        "timestamp": "2025-12-04T05:42:43.768666+00:00",
        "meta_object_name": "COSMOS 2251 DEB",
        "meta_object_id": "1993-036AQV",
        "meta_epoch": "2025-11-30T08:09:18.426240",
        "meta_mean_motion": 14.58149733,
        "meta_eccentricity": 0.00590888,
        "meta_inclination": 74.0317,
        "meta_ra_of_asc_node": 326.2795,
        "meta_arg_of_pericenter": 123.6188,
        "meta_mean_anomaly": 237.0635,
        "meta_ephemeris_type": 0,
        "meta_classification_type": "U",
        "meta_norad_cat_id": 35724,
        "meta_element_set_no": 999,
        "meta_rev_at_epoch": 87348,
        "meta_bstar": 0.00024156118,
        "meta_mean_motion_dot": 1.11e-05,
        "meta_mean_motion_ddot": 0,
        "tle_line1": "1 35724U 93036AQV 25334.33979660  .00001110  00000+0  24156-3 0  9995",
        "tle_line2": "2 35724  74.0317 326.2795 0059088 123.6188 237.0635 14.58149733873489"
      },
      "geometry": {
        "type": "Point",
        "coordinates": [
          -71.3306770826679,
          -60.34588483079724
        ]
      }
    },
    {
      "type": "Feature",
      "properties": {
        "norad_id": 35759,
        "name": "COSMOS 2251 DEB",
        "group": "cosmos-2251-debris",
        "lat": -49.49185429379812,
        "lon": -147.17702246815273,
        "alt_km": 645.5107228143816,
        "timestamp": "2025-12-04T05:42:43.768677+00:00",
        "meta_object_name": "COSMOS 2251 DEB",
        "meta_object_id": "1993-036ARD",
        "meta_epoch": "2025-12-02T09:41:30.767712",
        "meta_mean_motion": 14.648293,
        "meta_eccentricity": 0.00766899,
        "meta_inclination": 74.0385,
        "meta_ra_of_asc_node": 235.9215,
        "meta_arg_of_pericenter": 356.5872,
        "meta_mean_anomaly": 3.4761,
        "meta_ephemeris_type": 0,
        "meta_classification_type": "U",
        "meta_norad_cat_id": 35759,
        "meta_element_set_no": 999,
        "meta_rev_at_epoch": 65984,
        "meta_bstar": 0.00048578617,
        "meta_mean_motion_dot": 2.675e-05,
        "meta_mean_motion_ddot": 0,
        "tle_line1": "1 35759U 93036ARD 25336.40382833  .00002675  00000+0  48579-3 0  9995",
        "tle_line2": "2 35759  74.0385 235.9215 0076689 356.5872   3.4761 14.64829300659847"
      },
      "geometry": {
        "type": "Point",
        "coordinates": [
          -147.17702246815273,
          -49.49185429379812
        ]
      }
    },
    {
      "type": "Feature",
      "properties": {
        "norad_id": 35771,
        "name": "COSMOS 2251 DEB",
        "group": "cosmos-2251-debris",
        "lat": 72.19412933042263,
        "lon": 83.11015006259908,
        "alt_km": 1005.0497218529363,
        "timestamp": "2025-12-04T05:42:43.768687+00:00",
        "meta_object_name": "COSMOS 2251 DEB",
        "meta_object_id": "1993-036ARR",
        "meta_epoch": "2025-12-01T22:51:30.244896",
        "meta_mean_motion": 14.12926683,
        "meta_eccentricity": 0.02319351,
        "meta_inclination": 74.1552,
        "meta_ra_of_asc_node": 329.2812,
        "meta_arg_of_pericenter": 270.0606,
        "meta_mean_anomaly": 87.396,
        "meta_ephemeris_type": 0,
        "meta_classification_type": "U",
        "meta_norad_cat_id": 35771,
        "meta_element_set_no": 999,
        "meta_rev_at_epoch": 82708,
        "meta_bstar": 0.0067662276,
        "meta_mean_motion_dot": 0.00016281,
        "meta_mean_motion_ddot": 0,
        "tle_line1": "1 35771U 93036ARR 25335.95243339  .00016281  00000+0  67662-2 0  9996",
        "tle_line2": "2 35771  74.1552 329.2812 0231935 270.0606  87.3960 14.12926683827080"
      },
      "geometry": {
        "type": "Point",
        "coordinates": [
          83.11015006259908,
          72.19412933042263
        ]
      }
    },
    {
      "type": "Feature",
      "properties": {
        "norad_id": 35773,
        "name": "COSMOS 2251 DEB",
        "group": "cosmos-2251-debris",
        "lat": -71.31149661681076,
        "lon": -60.85047826465318,
        "alt_km": 709.981825573509,
        "timestamp": "2025-12-04T05:42:43.768698+00:00",
        "meta_object_name": "COSMOS 2251 DEB",
        "meta_object_id": "1993-036ART",
        "meta_epoch": "2025-12-03T18:35:07.808352",
        "meta_mean_motion": 14.61986615,
        "meta_eccentricity": 0.00460798,
        "meta_inclination": 74.0078,
        "meta_ra_of_asc_node": 358.0155,
        "meta_arg_of_pericenter": 160.5569,
        "meta_mean_anomaly": 199.7369,
        "meta_ephemeris_type": 0,
        "meta_classification_type": "U",
        "meta_norad_cat_id": 35773,
        "meta_element_set_no": 999,
        "meta_rev_at_epoch": 86708,
        "meta_bstar": 0.00081390842,
        "meta_mean_motion_dot": 4.113e-05,
        "meta_mean_motion_ddot": 0,
        "tle_line1": "1 35773U 93036ART 25337.77439593  .00004113  00000+0  81391-3 0  9996",
        "tle_line2": "2 35773  74.0078 358.0155 0046079 160.5569 199.7369 14.61986615867088"
      },
      "geometry": {
        "type": "Point",
        "coordinates": [
          -60.85047826465318,
          -71.31149661681076
        ]
      }
    },
    {
      "type": "Feature",
      "properties": {
        "norad_id": 35777,
        "name": "COSMOS 2251 DEB",
        "group": "cosmos-2251-debris",
        "lat": 10.097049479066609,
        "lon": 153.35472453363164,
        "alt_km": 939.8016498341758,
        "timestamp": "2025-12-04T05:42:43.768708+00:00",
        "meta_object_name": "COSMOS 2251 DEB",
        "meta_object_id": "1993-036ARX",
        "meta_epoch": "2025-12-02T10:40:29.464608",
        "meta_mean_motion": 13.41287955,
        "meta_eccentricity": 0.04528031,
        "meta_inclination": 73.7709,
        "meta_ra_of_asc_node": 339.1914,
        "meta_arg_of_pericenter": 235.501,
        "meta_mean_anomaly": 282.7283,
        "meta_ephemeris_type": 0,
        "meta_classification_type": "U",
        "meta_norad_cat_id": 35777,
        "meta_element_set_no": 999,
        "meta_rev_at_epoch": 79546,
        "meta_bstar": 0.00081766672,
        "meta_mean_motion_dot": 8.07e-06,
        "meta_mean_motion_ddot": 0,
        "tle_line1": "1 35777U 93036ARX 25336.44478547  .00000807  00000+0  81767-3 0  9998",
        "tle_line2": "2 35777  73.7709 339.1914 0452803 235.5010 282.7283 13.41287955795460"
      },
      "geometry": {
        "type": "Point",
        "coordinates": [
          153.35472453363164,
          10.097049479066609
        ]
      }
    },
    {
      "type": "Feature",
      "properties": {
        "norad_id": 35784,
        "name": "COSMOS 2251 DEB",
        "group": "cosmos-2251-debris",
        "lat": -54.00500734738301,
        "lon": 82.46405022273997,
        "alt_km": 719.559890337654,
        "timestamp": "2025-12-04T05:42:43.768718+00:00",
        "meta_object_name": "COSMOS 2251 DEB",
        "meta_object_id": "1993-036ASE",
        "meta_epoch": "2025-11-30T02:37:28.354944",
        "meta_mean_motion": 14.49985321,
        "meta_eccentricity": 0.00421284,
        "meta_inclination": 74.0362,
        "meta_ra_of_asc_node": 113.4211,
        "meta_arg_of_pericenter": 246.5375,
        "meta_mean_anomaly": 113.1355,
        "meta_ephemeris_type": 0,
        "meta_classification_type": "U",
        "meta_norad_cat_id": 35784,
        "meta_element_set_no": 999,
        "meta_rev_at_epoch": 65523,
        "meta_bstar": 0.00039422851,
        "meta_mean_motion_dot": 1.515e-05,
        "meta_mean_motion_ddot": 0,
        "tle_line1": "1 35784U 93036ASE 25334.10935596  .00001515  00000+0  39423-3 0  9998",
        "tle_line2": "2 35784  74.0362 113.4211 0042128 246.5375 113.1355 14.49985321655239"
      },
      "geometry": {
        "type": "Point",
        "coordinates": [
          82.46405022273997,
          -54.00500734738301
        ]
      }
    }
  ]
}